{
  "type": "FeatureCollection",
  "features": [
    {
      "type": "Feature",
      "properties": {
        "norad_id": 36533,
        "name": "COSMOS 2251 DEB",
        "group": "cosmos-2251-debris",
        "lat": 39.51501774455749,
        "lon": -78.06554377921898,
        "alt_km": 743.4560287598524,
        "timestamp": "2025-12-12T07:43:20.913249+00:00",
        "meta_object_name": "COSMOS 2251 DEB",
        "meta_object_id": "1993-036BCT",
        "meta_epoch": "2025-12-11T02:55:41.664000",
        "meta_mean_motion": 14.498054,
        "meta_eccentricity": 0.00492095,
        "meta_inclination": 74.0114,
        "meta_ra_of_asc_node": 117.868,
        "meta_arg_of_pericenter": 267.3068,
        "meta_mean_anomaly": 92.2459,
        "meta_ephemeris_type": 0,
        "meta_classification_type": "U",
        "meta_norad_cat_id": 36533,
        "meta_element_set_no": 999,
        "meta_rev_at_epoch": 84461,
        "meta_bstar": 0.00077586948,
        "meta_mean_motion_dot": 3.011e-05,
        "meta_mean_motion_ddot": 0,
        "tle_line1": "1 36533U 93036BCT 25345.12201000  .00003011  00000+0  77587-3 0  9997",
        "tle_line2": "2 36533  74.0114 117.8680 0049209 267.3068  92.2459 14.49805400844615"
      },
      "geometry": {
        "type": "Point",
        "coordinates": [
          -78.06554377921898,
          39.51501774455749
        ]
      }
    },
    {
      "type": "Feature",
      "properties": {
        "norad_id": 36539,
        "name": "COSMOS 2251 DEB",
        "group": "cosmos-2251-debris",
        "lat": -32.383752439683875,
        "lon": 45.50907763580862,
        "alt_km": 712.2532149952895,
        "timestamp": "2025-12-12T07:43:20.913259+00:00",
        "meta_object_name": "COSMOS 2251 DEB",
        "meta_object_id": "1993-036BCZ",
        "meta_epoch": "2025-12-11T15:25:29.467488",
        "meta_mean_motion": 14.59291195,
        "meta_eccentricity": 0.00272696,
        "meta_inclination": 74.0237,
        "meta_ra_of_asc_node": 57.2724,
        "meta_arg_of_pericenter": 202.5969,
        "meta_mean_anomaly": 157.3998,
        "meta_ephemeris_type": 0,
        "meta_classification_type": "U",
        "meta_norad_cat_id": 36539,
        "meta_element_set_no": 999,
        "meta_rev_at_epoch": 83931,
        "meta_bstar": 0.0011949516,
        "meta_mean_motion_dot": 5.65e-05,
        "meta_mean_motion_ddot": 0,
        "tle_line1": "1 36539U 93036BCZ 25345.64270217  .00005650  00000+0  11950-2 0  9998",
        "tle_line2": "2 36539  74.0237  57.2724 0027269 202.5969 157.3998 14.59291195839319"
      },
      "geometry": {
        "type": "Point",
        "coordinates": [
          45.50907763580862,
          -32.383752439683875
        ]
      }
    },
    {
      "type": "Feature",
      "properties": {
        "norad_id": 36540,
        "name": "COSMOS 2251 DEB",
        "group": "cosmos-2251-debris",
        "lat": -65.24327513963455,
        "lon": 142.9189684605094,
        "alt_km": 696.5717329111285,
        "timestamp": "2025-12-12T07:43:20.913270+00:00",
        "meta_object_name": "COSMOS 2251 DEB",
        "meta_object_id": "1993-036BDA",
        "meta_epoch": "2025-12-10T19:49:44.721120",
        "meta_mean_motion": 14.58450525,
        "meta_eccentricity": 0.00150636,
        "meta_inclination": 74.0281,
        "meta_ra_of_asc_node": 184.1599,
        "meta_arg_of_pericenter": 254.4622,
        "meta_mean_anomaly": 105.488,
        "meta_ephemeris_type": 0,
        "meta_classification_type": "U",
        "meta_norad_cat_id": 36540,
        "meta_element_set_no": 999,
        "meta_rev_at_epoch": 85982,
        "meta_bstar": 0.0015654677,
        "meta_mean_motion_dot": 7.253e-05,
        "meta_mean_motion_ddot": 0,
        "tle_line1": "1 36540U 93036BDA 25344.82621205  .00007253  00000+0  15655-2 0  9993",
        "tle_line2": "2 36540  74.0281 184.1599 0015063 254.4622 105.4880 14.58450525859826"
      },
      "geometry": {
        "type": "Point",
        "coordinates": [
          142.9189684605094,
          -65.24327513963455
        ]
      }
    },
    {
      "type": "Feature",
      "properties": {
        "norad_id": 36550,
        "name": "COSMOS 2251 DEB",
        "group": "cosmos-2251-debris",
        "lat": 4.408736031370202,
        "lon": 12.233358702729497,
        "alt_km": 782.5115206880655,
        "timestamp": "2025-12-12T07:43:20.913280+00:00",
        "meta_object_name": "COSMOS 2251 DEB",
        "meta_object_id": "1993-036BDL",
        "meta_epoch": "2025-12-11T22:29:04.773984",
        "meta_mean_motion": 14.2719583,
        "meta_eccentricity": 0.00783952,
        "meta_inclination": 74.044,
        "meta_ra_of_asc_node": 194.1933,
        "meta_arg_of_pericenter": 245.0302,
        "meta_mean_anomaly": 114.2689,
        "meta_ephemeris_type": 0,
        "meta_classification_type": "U",
        "meta_norad_cat_id": 36550,
        "meta_element_set_no": 999,
        "meta_rev_at_epoch": 84584,
        "meta_bstar": 0.00089503429,
        "meta_mean_motion_dot": 2.233e-05,
        "meta_mean_motion_ddot": 0,
        "tle_line1": "1 36550U 93036BDL 25345.93686081  .00002233  00000+0  89503-3 0  9997",
        "tle_line2": "2 36550  74.0440 194.1933 0078395 245.0302 114.2689 14.27195830845848"
      },
      "geometry": {
        "type": "Point",
        "coordinates": [
          12.233358702729497,
          4.408736031370202
        ]
      }
    },
    {
      "type": "Feature",
      "properties": {
        "norad_id": 36551,
        "name": "COSMOS 2251 DEB",
        "group": "cosmos-2251-debris",
        "lat": 56.64550497003342,
        "lon": 169.5131266072931,
        "alt_km": 585.1407101076893,
        "timestamp": "2025-12-12T07:43:20.913290+00:00",
        "meta_object_name": "COSMOS 2251 DEB",
        "meta_object_id": "1993-036BDM",
        "meta_epoch": "2025-12-11T08:49:13.161216",
        "meta_mean_motion": 15.02499936,
        "meta_eccentricity": 0.00508907,
        "meta_inclination": 73.8866,
        "meta_ra_of_asc_node": 17.5288,
        "meta_arg_of_pericenter": 326.8446,
        "meta_mean_anomaly": 32.9554,
        "meta_ephemeris_type": 0,
        "meta_classification_type": "U",
        "meta_norad_cat_id": 36551,
        "meta_element_set_no": 999,
        "meta_rev_at_epoch": 66911,
        "meta_bstar": 0.0023963096,
        "meta_mean_motion_dot": 0.00032841,
        "meta_mean_motion_ddot": 0,
        "tle_line1": "1 36551U 93036BDM 25345.36751344  .00032841  00000+0  23963-2 0  9995",
        "tle_line2": "2 36551  73.8866  17.5288 0050890 326.8446  32.9554 15.02499936669115"
      },
      "geometry": {
        "type": "Point",
        "coordinates": [
          169.5131266072931,
          56.64550497003342
        ]
      }
    },
    {
      "type": "Feature",
      "properties": {
        "norad_id": 36557,
        "name": "COSMOS 2251 DEB",
        "group": "cosmos-2251-debris",
        "lat": 39.72604841998033,
        "lon": -66.74088037260842,
        "alt_km": 642.9509249721823,
        "timestamp": "2025-12-12T07:43:20.913301+00:00",
        "meta_object_name": "COSMOS 2251 DEB",
        "meta_object_id": "1993-036BDT",
        "meta_epoch": "2025-12-11T16:28:44.136480",
        "meta_mean_motion": 14.78160391,
        "meta_eccentricity": 0.00210346,
        "meta_inclination": 73.9786,
        "meta_ra_of_asc_node": 128.3248,
        "meta_arg_of_pericenter": 280.1534,
        "meta_mean_anomaly": 79.7268,
        "meta_ephemeris_type": 0,
        "meta_classification_type": "U",
        "meta_norad_cat_id": 36557,
        "meta_element_set_no": 999,
        "meta_rev_at_epoch": 33881,
        "meta_bstar": 0.0052972788,
        "meta_mean_motion_dot": 0.00038702,
        "meta_mean_motion_ddot": 0,
        "tle_line1": "1 36557U 93036BDT 25345.68662195  .00038702  00000+0  52973-2 0  9996",
        "tle_line2": "2 36557  73.9786 128.3248 0021034 280.1534  79.7268 14.78160391338811"
      },
      "geometry": {
        "type": "Point",
        "coordinates": [
          -66.74088037260842,
          39.72604841998033
        ]
      }
    },
    {
      "type": "Feature",
      "properties": {
        "norad_id": 36558,
        "name": "COSMOS 2251 DEB",
        "group": "cosmos-2251-debris",
        "lat": 63.440226355570786,
        "lon": -59.583434381123524,
        "alt_km": 707.7719399401776,
        "timestamp": "2025-12-12T07:43:20.913311+00:00",
        "meta_object_name": "COSMOS 2251 DEB",
        "meta_object_id": "1993-036BDU",
        "meta_epoch": "2025-12-09T18:10:09.606432",
        "meta_mean_motion": 14.55323693,
        "meta_eccentricity": 0.00129627,
        "meta_inclination": 74.0418,
        "meta_ra_of_asc_node": 160.1895,
        "meta_arg_of_pericenter": 248.6111,
        "meta_mean_anomaly": 111.367,
        "meta_ephemeris_type": 0,
        "meta_classification_type": "U",
        "meta_norad_cat_id": 36558,
        "meta_element_set_no": 999,
        "meta_rev_at_epoch": 85225,
        "meta_bstar": 0.0013992246,
        "meta_mean_motion_dot": 6.051e-05,
        "meta_mean_motion_ddot": 0,
        "tle_line1": "1 36558U 93036BDU 25343.75705563  .00006051  00000+0  13992-2 0  9990",
        "tle_line2": "2 36558  74.0418 160.1895 0012962 248.6111 111.3670 14.55323693852258"
      },
      "geometry": {
        "type": "Point",
        "coordinates": [
          -59.583434381123524,
          63.440226355570786
        ]
      }
    }
  ]
}